<?xml version="1.0" encoding="UTF-8"?>
<ndm xmlns:xsi="http://www.w3.org/2001/XMLSchema-instance" xsi:noNamespaceSchemaLocation="https://sanaregistry.org/r/ndmxml_unqualified/ndmxml-2.0.0-master-2.0.xsd">
<omm id="CCSDS_OMM_VERS" version="2.0">
<header><CREATION_DATE/><ORIGINATOR/></header><body><segment><metadata><OBJECT_NAME>ORBCOMM FM119</OBJECT_NAME><OBJECT_ID>2015-081B</OBJECT_ID><CENTER_NAME>EARTH</CENTER_NAME><REF_FRAME>TEME</REF_FRAME><TIME_SYSTEM>UTC</TIME_SYSTEM><MEAN_ELEMENT_THEORY>SGP4</MEAN_ELEMENT_THEORY></metadata><data><meanElements><EPOCH>2024-09-04T17:09:27.882720</EPOCH><MEAN_MOTION>14.56972950</MEAN_MOTION><ECCENTRICITY>.0001595</ECCENTRICITY><INCLINATION>46.9993</INCLINATION><RA_OF_ASC_NODE>103.3831</RA_OF_ASC_NODE><ARG_OF_PERICENTER>200.6995</ARG_OF_PERICENTER><MEAN_ANOMALY>159.3825</MEAN_ANOMALY></meanElements><tleParameters><EPHEMERIS_TYPE>0</EPHEMERIS_TYPE><CLASSIFICATION_TYPE>U</CLASSIFICATION_TYPE><NORAD_CAT_ID>41180</NORAD_CAT_ID><ELEMENT_SET_NO>999</ELEMENT_SET_NO><REV_AT_EPOCH>46407</REV_AT_EPOCH><BSTAR>.78126E-3</BSTAR><MEAN_MOTION_DOT>.3378E-4</MEAN_MOTION_DOT><MEAN_MOTION_DDOT>0</MEAN_MOTION_DDOT></tleParameters></data></segment></body></omm>
<omm id="CCSDS_OMM_VERS" version="2.0">
<header><CREATION_DATE/><ORIGINATOR/></header><body><segment><metadata><OBJECT_NAME>ORBCOMM FM105</OBJECT_NAME><OBJECT_ID>2015-081C</OBJECT_ID><CENTER_NAME>EARTH</CENTER_NAME><REF_FRAME>TEME</REF_FRAME><TIME_SYSTEM>UTC</TIME_SYSTEM><MEAN_ELEMENT_THEORY>SGP4</MEAN_ELEMENT_THEORY></metadata><data><meanElements><EPOCH>2024-09-04T17:14:31.854336</EPOCH><MEAN_MOTION>14.44601240</MEAN_MOTION><ECCENTRICITY>.0001422</ECCENTRICITY><INCLINATION>47.0016</INCLINATION><RA_OF_ASC_NODE>81.0759</RA_OF_ASC_NODE><ARG_OF_PERICENTER>136.3329</ARG_OF_PERICENTER><MEAN_ANOMALY>223.7664</MEAN_ANOMALY></meanElements><tleParameters><EPHEMERIS_TYPE>0</EPHEMERIS_TYPE><CLASSIFICATION_TYPE>U</CLASSIFICATION_TYPE><NORAD_CAT_ID>41181</NORAD_CAT_ID><ELEMENT_SET_NO>999</ELEMENT_SET_NO><REV_AT_EPOCH>45946</REV_AT_EPOCH><BSTAR>.50561E-3</BSTAR><MEAN_MOTION_DOT>.1608E-4</MEAN_MOTION_DOT><MEAN_MOTION_DDOT>0</MEAN_MOTION_DDOT></tleParameters></data></segment></body></omm>
<omm id="CCSDS_OMM_VERS" version="2.0">
<header><CREATION_DATE/><ORIGINATOR/></header><body><segment><metadata><OBJECT_NAME>ORBCOMM FM110</OBJECT_NAME><OBJECT_ID>2015-081D</OBJECT_ID><CENTER_NAME>EARTH</CENTER_NAME><REF_FRAME>TEME</REF_FRAME><TIME_SYSTEM>UTC</TIME_SYSTEM><MEAN_ELEMENT_THEORY>SGP4</MEAN_ELEMENT_THEORY></metadata><data><meanElements><EPOCH>2024-09-05T04:41:20.427648</EPOCH><MEAN_MOTION>14.57094966</MEAN_MOTION><ECCENTRICITY>.0002388</ECCENTRICITY><INCLINATION>47.0001</INCLINATION><RA_OF_ASC_NODE>191.2743</RA_OF_ASC_NODE><ARG_OF_PERICENTER>300.5391</ARG_OF_PERICENTER><MEAN_ANOMALY>59.5258</MEAN_ANOMALY></meanElements><tleParameters><EPHEMERIS_TYPE>0</EPHEMERIS_TYPE><CLASSIFICATION_TYPE>U</CLASSIFICATION_TYPE><NORAD_CAT_ID>41182</NORAD_CAT_ID><ELEMENT_SET_NO>999</ELEMENT_SET_NO><REV_AT_EPOCH>46294</REV_AT_EPOCH><BSTAR>.96159E-3</BSTAR><MEAN_MOTION_DOT>.4208E-4</MEAN_MOTION_DOT><MEAN_MOTION_DDOT>0</MEAN_MOTION_DDOT></tleParameters></data></segment></body></omm>
<omm id="CCSDS_OMM_VERS" version="2.0">
<header><CREATION_DATE/><ORIGINATOR/></header><body><segment><metadata><OBJECT_NAME>ORBCOMM FM118</OBJECT_NAME><OBJECT_ID>2015-081E</OBJECT_ID><CENTER_NAME>EARTH</CENTER_NAME><REF_FRAME>TEME</REF_FRAME><TIME_SYSTEM>UTC</TIME_SYSTEM><MEAN_ELEMENT_THEORY>SGP4</MEAN_ELEMENT_THEORY></metadata><data><meanElements><EPOCH>2024-09-04T08:24:47.608128</EPOCH><MEAN_MOTION>14.57064344</MEAN_MOTION><ECCENTRICITY>.0002687</ECCENTRICITY><INCLINATION>47.0025</INCLINATION><RA_OF_ASC_NODE>195.5951</RA_OF_ASC_NODE><ARG_OF_PERICENTER>294.0357</ARG_OF_PERICENTER><MEAN_ANOMALY>66.0247</MEAN_ANOMALY></meanElements><tleParameters><EPHEMERIS_TYPE>0</EPHEMERIS_TYPE><CLASSIFICATION_TYPE>U</CLASSIFICATION_TYPE><NORAD_CAT_ID>41183</NORAD_CAT_ID><ELEMENT_SET_NO>999</ELEMENT_SET_NO><REV_AT_EPOCH>46274</REV_AT_EPOCH><BSTAR>.85837E-3</BSTAR><MEAN_MOTION_DOT>.3736E-4</MEAN_MOTION_DOT><MEAN_MOTION_DDOT>0</MEAN_MOTION_DDOT></tleParameters></data></segment></body></omm>
<omm id="CCSDS_OMM_VERS" version="2.0">
<header><CREATION_DATE/><ORIGINATOR/></header><body><segment><metadata><OBJECT_NAME>ORBCOMM FM112</OBJECT_NAME><OBJECT_ID>2015-081F</OBJECT_ID><CENTER_NAME>EARTH</CENTER_NAME><REF_FRAME>TEME</REF_FRAME><TIME_SYSTEM>UTC</TIME_SYSTEM><MEAN_ELEMENT_THEORY>SGP4</MEAN_ELEMENT_THEORY></metadata><data><meanElements><EPOCH>2024-09-05T00:50:12.131232</EPOCH><MEAN_MOTION>14.56981698</MEAN_MOTION><ECCENTRICITY>.0001792</ECCENTRICITY><INCLINATION>46.9976</INCLINATION><RA_OF_ASC_NODE>101.0719</RA_OF_ASC_NODE><ARG_OF_PERICENTER>172.1079</ARG_OF_PERICENTER><MEAN_ANOMALY>187.9834</MEAN_ANOMALY></meanElements><tleParameters><EPHEMERIS_TYPE>0</EPHEMERIS_TYPE><CLASSIFICATION_TYPE>U</CLASSIFICATION_TYPE><NORAD_CAT_ID>41184</NORAD_CAT_ID><ELEMENT_SET_NO>999</ELEMENT_SET_NO><REV_AT_EPOCH>46411</REV_AT_EPOCH><BSTAR>.81175E-3</BSTAR><MEAN_MOTION_DOT>.3517E-4</MEAN_MOTION_DOT><MEAN_MOTION_DDOT>0</MEAN_MOTION_DDOT></tleParameters></data></segment></body></omm>
<omm id="CCSDS_OMM_VERS" version="2.0">
<header><CREATION_DATE/><ORIGINATOR/></header><body><segment><metadata><OBJECT_NAME>ORBCOMM FM113</OBJECT_NAME><OBJECT_ID>2015-081G</OBJECT_ID><CENTER_NAME>EARTH</CENTER_NAME><REF_FRAME>TEME</REF_FRAME><TIME_SYSTEM>UTC</TIME_SYSTEM><MEAN_ELEMENT_THEORY>SGP4</MEAN_ELEMENT_THEORY></metadata><data><meanElements><EPOCH>2024-09-04T17:42:11.124000</EPOCH><MEAN_MOTION>14.56988598</MEAN_MOTION><ECCENTRICITY>.0001573</ECCENTRICITY><INCLINATION>46.9992</INCLINATION><RA_OF_ASC_NODE>102.7572</RA_OF_ASC_NODE><ARG_OF_PERICENTER>190.2345</ARG_OF_PERICENTER><MEAN_ANOMALY>169.8508</MEAN_ANOMALY></meanElements><tleParameters><EPHEMERIS_TYPE>0</EPHEMERIS_TYPE><CLASSIFICATION_TYPE>U</CLASSIFICATION_TYPE><NORAD_CAT_ID>41185</NORAD_CAT_ID><ELEMENT_SET_NO>999</ELEMENT_SET_NO><REV_AT_EPOCH>46400</REV_AT_EPOCH><BSTAR>.97314E-3</BSTAR><MEAN_MOTION_DOT>.4251E-4</MEAN_MOTION_DOT><MEAN_MOTION_DDOT>0</MEAN_MOTION_DDOT></tleParameters></data></segment></body></omm>

</ndm>
