ORBCOMM FM119           
1 41180U 15081B   24248.71490605  .00003378  00000+0  78126-3 0  9998
2 41180  46.9993 103.3831 0001595 200.6995 159.3825 14.56972950464078
ORBCOMM FM105           
1 41181U 15081C   24248.71842424  .00001608  00000+0  50561-3 0  9996
2 41181  47.0016  81.0759 0001422 136.3329 223.7664 14.44601240459465
ORBCOMM FM110           
1 41182U 15081D   24249.19537532  .00004208  00000+0  96159-3 0  9993
2 41182  47.0001 191.2743 0002388 300.5391  59.5258 14.57094966462949
ORBCOMM FM118           
1 41183U 15081E   24248.35055102  .00003736  00000+0  85837-3 0  9995
2 41183  47.0025 195.5951 0002687 294.0357  66.0247 14.57064344462741
ORBCOMM FM112           
1 41184U 15081F   24249.03486263  .00003517  00000+0  81175-3 0  9996
2 41184  46.9976 101.0719 0001792 172.1079 187.9834 14.56981698464119
ORBCOMM FM113           
1 41185U 15081G   24248.73762875  .00004251  00000+0  97314-3 0  9997
2 41185  46.9992 102.7572 0001573 190.2345 169.8508 14.56988598464008
